IRIDIUM 106             
1 41917U 17003A   26025.62817342  .00000480  00000+0  16443-3 0  9993
2 41917  86.4021 148.1352 0002059  84.3917 275.7513 14.34217357472771
IRIDIUM 103             
1 41918U 17003B   26025.40618102  .00000604  00000+0  20869-3 0  9998
2 41918  86.4015 148.1279 0002426  96.8743 263.2729 14.34217849472762
IRIDIUM 109             
1 41919U 17003C   26025.41252707  .00000535  00000+0  18393-3 0  9997
2 41919  86.4022 148.1826 0002085  96.2927 263.8507 14.34217257472738
IRIDIUM 102             
1 41920U 17003D   26025.59011619  .00000356  00000+0  11994-3 0  9994
2 41920  86.4019 148.0351 0001991  97.6923 262.4499 14.34217081472846
IRIDIUM 105             
1 41921U 17003E   26025.28177240  .00000493  00000+0  16890-3 0  9996
2 41921  86.3987 116.6477 0002099  96.6035 263.5399 14.34217141474652
IRIDIUM 104             
1 41922U 17003F   26025.39349061  .00000374  00000+0  12645-3 0  9993
2 41922  86.4020 148.1576 0002249 105.2073 254.9372 14.34214812472800
IRIDIUM 114             
1 41923U 17003G   26025.39983942  .00000402  00000+0  13652-3 0  9997
2 41923  86.4019 148.1386 0002220  99.6378 260.5069 14.34217405472785
IRIDIUM 108             
1 41924U 17003H   26025.63742525  .00000517  00000+0  17750-3 0  9995
2 41924  86.3982 116.3865 0001964  96.9573 263.1846 14.34220862474677
